<?xml version="1.0" encoding="UTF-8"?>
<ndm xmlns:xsi="http://www.w3.org/2001/XMLSchema-instance" xsi:noNamespaceSchemaLocation="https://sanaregistry.org/r/ndmxml_unqualified/ndmxml-2.0.0-master-2.0.xsd">
<omm id="CCSDS_OMM_VERS" version="2.0">
<header><CREATION_DATE/><ORIGINATOR/></header><body><segment><metadata><OBJECT_NAME>KUIPER-00133</OBJECT_NAME><OBJECT_ID>2025-217C</OBJECT_ID><CENTER_NAME>EARTH</CENTER_NAME><REF_FRAME>TEME</REF_FRAME><TIME_SYSTEM>UTC</TIME_SYSTEM><MEAN_ELEMENT_THEORY>SGP4</MEAN_ELEMENT_THEORY></metadata><data><meanElements><EPOCH>2026-01-13T01:28:36.764832</EPOCH><MEAN_MOTION>14.79906438</MEAN_MOTION><ECCENTRICITY>.0011477</ECCENTRICITY><INCLINATION>51.9039</INCLINATION><RA_OF_ASC_NODE>299.0902</RA_OF_ASC_NODE><ARG_OF_PERICENTER>133.9252</ARG_OF_PERICENTER><MEAN_ANOMALY>226.2660</MEAN_ANOMALY></meanElements><tleParameters><EPHEMERIS_TYPE>0</EPHEMERIS_TYPE><CLASSIFICATION_TYPE>U</CLASSIFICATION_TYPE><NORAD_CAT_ID>65764</NORAD_CAT_ID><ELEMENT_SET_NO>999</ELEMENT_SET_NO><REV_AT_EPOCH>1650</REV_AT_EPOCH><BSTAR>-.43956E-3</BSTAR><MEAN_MOTION_DOT>-.3575E-4</MEAN_MOTION_DOT><MEAN_MOTION_DDOT>0</MEAN_MOTION_DDOT></tleParameters></data></segment></body></omm>
<omm id="CCSDS_OMM_VERS" version="2.0">
<header><CREATION_DATE/><ORIGINATOR/></header><body><segment><metadata><OBJECT_NAME>KUIPER-00139</OBJECT_NAME><OBJECT_ID>2025-217D</OBJECT_ID><CENTER_NAME>EARTH</CENTER_NAME><REF_FRAME>TEME</REF_FRAME><TIME_SYSTEM>UTC</TIME_SYSTEM><MEAN_ELEMENT_THEORY>SGP4</MEAN_ELEMENT_THEORY></metadata><data><meanElements><EPOCH>2026-01-13T03:40:05.902176</EPOCH><MEAN_MOTION>15.02203663</MEAN_MOTION><ECCENTRICITY>.000852</ECCENTRICITY><INCLINATION>51.8857</INCLINATION><RA_OF_ASC_NODE>288.1159</RA_OF_ASC_NODE><ARG_OF_PERICENTER>128.3761</ARG_OF_PERICENTER><MEAN_ANOMALY>231.7977</MEAN_ANOMALY></meanElements><tleParameters><EPHEMERIS_TYPE>0</EPHEMERIS_TYPE><CLASSIFICATION_TYPE>U</CLASSIFICATION_TYPE><NORAD_CAT_ID>65765</NORAD_CAT_ID><ELEMENT_SET_NO>999</ELEMENT_SET_NO><REV_AT_EPOCH>1666</REV_AT_EPOCH><BSTAR>.46399E-3</BSTAR><MEAN_MOTION_DOT>.5918E-4</MEAN_MOTION_DOT><MEAN_MOTION_DDOT>0</MEAN_MOTION_DDOT></tleParameters></data></segment></body></omm>
<omm id="CCSDS_OMM_VERS" version="2.0">
<header><CREATION_DATE/><ORIGINATOR/></header><body><segment><metadata><OBJECT_NAME>KUIPER-00142</OBJECT_NAME><OBJECT_ID>2025-217E</OBJECT_ID><CENTER_NAME>EARTH</CENTER_NAME><REF_FRAME>TEME</REF_FRAME><TIME_SYSTEM>UTC</TIME_SYSTEM><MEAN_ELEMENT_THEORY>SGP4</MEAN_ELEMENT_THEORY></metadata><data><meanElements><EPOCH>2026-01-13T04:00:04.999392</EPOCH><MEAN_MOTION>14.83071492</MEAN_MOTION><ECCENTRICITY>.0001208</ECCENTRICITY><INCLINATION>51.8990</INCLINATION><RA_OF_ASC_NODE>281.2022</RA_OF_ASC_NODE><ARG_OF_PERICENTER>75.5068</ARG_OF_PERICENTER><MEAN_ANOMALY>161.8232</MEAN_ANOMALY></meanElements><tleParameters><EPHEMERIS_TYPE>0</EPHEMERIS_TYPE><CLASSIFICATION_TYPE>U</CLASSIFICATION_TYPE><NORAD_CAT_ID>65766</NORAD_CAT_ID><ELEMENT_SET_NO>999</ELEMENT_SET_NO><REV_AT_EPOCH>440</REV_AT_EPOCH><BSTAR>.92689E-3</BSTAR><MEAN_MOTION_DOT>.7399E-4</MEAN_MOTION_DOT><MEAN_MOTION_DDOT>0</MEAN_MOTION_DDOT></tleParameters></data></segment></body></omm>
<omm id="CCSDS_OMM_VERS" version="2.0">
<header><CREATION_DATE/><ORIGINATOR/></header><body><segment><metadata><OBJECT_NAME>KUIPER-00145</OBJECT_NAME><OBJECT_ID>2025-217F</OBJECT_ID><CENTER_NAME>EARTH</CENTER_NAME><REF_FRAME>TEME</REF_FRAME><TIME_SYSTEM>UTC</TIME_SYSTEM><MEAN_ELEMENT_THEORY>SGP4</MEAN_ELEMENT_THEORY></metadata><data><meanElements><EPOCH>2026-01-13T04:00:04.999392</EPOCH><MEAN_MOTION>14.80816692</MEAN_MOTION><ECCENTRICITY>.0000689</ECCENTRICITY><INCLINATION>51.8995</INCLINATION><RA_OF_ASC_NODE>283.6408</RA_OF_ASC_NODE><ARG_OF_PERICENTER>60.3240</ARG_OF_PERICENTER><MEAN_ANOMALY>229.6288</MEAN_ANOMALY></meanElements><tleParameters><EPHEMERIS_TYPE>0</EPHEMERIS_TYPE><CLASSIFICATION_TYPE>U</CLASSIFICATION_TYPE><NORAD_CAT_ID>65767</NORAD_CAT_ID><ELEMENT_SET_NO>999</ELEMENT_SET_NO><REV_AT_EPOCH>514</REV_AT_EPOCH><BSTAR>.1649E-3</BSTAR><MEAN_MOTION_DOT>.1061E-4</MEAN_MOTION_DOT><MEAN_MOTION_DDOT>0</MEAN_MOTION_DDOT></tleParameters></data></segment></body></omm>
<omm id="CCSDS_OMM_VERS" version="2.0">
<header><CREATION_DATE/><ORIGINATOR/></header><body><segment><metadata><OBJECT_NAME>KUIPER-00147</OBJECT_NAME><OBJECT_ID>2025-217G</OBJECT_ID><CENTER_NAME>EARTH</CENTER_NAME><REF_FRAME>TEME</REF_FRAME><TIME_SYSTEM>UTC</TIME_SYSTEM><MEAN_ELEMENT_THEORY>SGP4</MEAN_ELEMENT_THEORY></metadata><data><meanElements><EPOCH>2026-01-13T04:00:04.999392</EPOCH><MEAN_MOTION>14.80290995</MEAN_MOTION><ECCENTRICITY>.0002116</ECCENTRICITY><INCLINATION>51.8987</INCLINATION><RA_OF_ASC_NODE>286.1337</RA_OF_ASC_NODE><ARG_OF_PERICENTER>106.5505</ARG_OF_PERICENTER><MEAN_ANOMALY>21.8856</MEAN_ANOMALY></meanElements><tleParameters><EPHEMERIS_TYPE>0</EPHEMERIS_TYPE><CLASSIFICATION_TYPE>U</CLASSIFICATION_TYPE><NORAD_CAT_ID>65768</NORAD_CAT_ID><ELEMENT_SET_NO>999</ELEMENT_SET_NO><REV_AT_EPOCH>576</REV_AT_EPOCH><BSTAR>.32712E-4</BSTAR><MEAN_MOTION_DOT>.29E-6</MEAN_MOTION_DOT><MEAN_MOTION_DDOT>0</MEAN_MOTION_DDOT></tleParameters></data></segment></body></omm>
<omm id="CCSDS_OMM_VERS" version="2.0">
<header><CREATION_DATE/><ORIGINATOR/></header><body><segment><metadata><OBJECT_NAME>KUIPER-00148</OBJECT_NAME><OBJECT_ID>2025-217H</OBJECT_ID><CENTER_NAME>EARTH</CENTER_NAME><REF_FRAME>TEME</REF_FRAME><TIME_SYSTEM>UTC</TIME_SYSTEM><MEAN_ELEMENT_THEORY>SGP4</MEAN_ELEMENT_THEORY></metadata><data><meanElements><EPOCH>2026-01-13T03:08:37.915296</EPOCH><MEAN_MOTION>15.09228371</MEAN_MOTION><ECCENTRICITY>.0010264</ECCENTRICITY><INCLINATION>51.8775</INCLINATION><RA_OF_ASC_NODE>282.1209</RA_OF_ASC_NODE><ARG_OF_PERICENTER>154.1362</ARG_OF_PERICENTER><MEAN_ANOMALY>206.0128</MEAN_ANOMALY></meanElements><tleParameters><EPHEMERIS_TYPE>0</EPHEMERIS_TYPE><CLASSIFICATION_TYPE>U</CLASSIFICATION_TYPE><NORAD_CAT_ID>65769</NORAD_CAT_ID><ELEMENT_SET_NO>999</ELEMENT_SET_NO><REV_AT_EPOCH>1674</REV_AT_EPOCH><BSTAR>.40547E-3</BSTAR><MEAN_MOTION_DOT>.6247E-4</MEAN_MOTION_DOT><MEAN_MOTION_DDOT>0</MEAN_MOTION_DDOT></tleParameters></data></segment></body></omm>
<omm id="CCSDS_OMM_VERS" version="2.0">
<header><CREATION_DATE/><ORIGINATOR/></header><body><segment><metadata><OBJECT_NAME>KUIPER-00150</OBJECT_NAME><OBJECT_ID>2025-217J</OBJECT_ID><CENTER_NAME>EARTH</CENTER_NAME><REF_FRAME>TEME</REF_FRAME><TIME_SYSTEM>UTC</TIME_SYSTEM><MEAN_ELEMENT_THEORY>SGP4</MEAN_ELEMENT_THEORY></metadata><data><meanElements><EPOCH>2026-01-13T01:32:42.031104</EPOCH><MEAN_MOTION>14.79859163</MEAN_MOTION><ECCENTRICITY>.000104</ECCENTRICITY><INCLINATION>51.9030</INCLINATION><RA_OF_ASC_NODE>296.5766</RA_OF_ASC_NODE><ARG_OF_PERICENTER>101.0737</ARG_OF_PERICENTER><MEAN_ANOMALY>259.0342</MEAN_ANOMALY></meanElements><tleParameters><EPHEMERIS_TYPE>0</EPHEMERIS_TYPE><CLASSIFICATION_TYPE>U</CLASSIFICATION_TYPE><NORAD_CAT_ID>65770</NORAD_CAT_ID><ELEMENT_SET_NO>999</ELEMENT_SET_NO><REV_AT_EPOCH>1653</REV_AT_EPOCH><BSTAR>-.58685E-3</BSTAR><MEAN_MOTION_DOT>-.4684E-4</MEAN_MOTION_DOT><MEAN_MOTION_DDOT>0</MEAN_MOTION_DDOT></tleParameters></data></segment></body></omm>
<omm id="CCSDS_OMM_VERS" version="2.0">
<header><CREATION_DATE/><ORIGINATOR/></header><body><segment><metadata><OBJECT_NAME>KUIPER-00151</OBJECT_NAME><OBJECT_ID>2025-217K</OBJECT_ID><CENTER_NAME>EARTH</CENTER_NAME><REF_FRAME>TEME</REF_FRAME><TIME_SYSTEM>UTC</TIME_SYSTEM><MEAN_ELEMENT_THEORY>SGP4</MEAN_ELEMENT_THEORY></metadata><data><meanElements><EPOCH>2026-01-13T03:21:28.209312</EPOCH><MEAN_MOTION>14.79928886</MEAN_MOTION><ECCENTRICITY>.0000949</ECCENTRICITY><INCLINATION>51.9018</INCLINATION><RA_OF_ASC_NODE>288.7392</RA_OF_ASC_NODE><ARG_OF_PERICENTER>88.2598</ARG_OF_PERICENTER><MEAN_ANOMALY>271.8473</MEAN_ANOMALY></meanElements><tleParameters><EPHEMERIS_TYPE>0</EPHEMERIS_TYPE><CLASSIFICATION_TYPE>U</CLASSIFICATION_TYPE><NORAD_CAT_ID>65771</NORAD_CAT_ID><ELEMENT_SET_NO>999</ELEMENT_SET_NO><REV_AT_EPOCH>1665</REV_AT_EPOCH><BSTAR>.31224E-3</BSTAR><MEAN_MOTION_DOT>.216E-4</MEAN_MOTION_DOT><MEAN_MOTION_DDOT>0</MEAN_MOTION_DDOT></tleParameters></data></segment></body></omm>

</ndm>
