KUIPER-00133            
1 65764U 25217C   26013.06153663 -.00003575  00000+0 -43956-3 0  9998
2 65764  51.9039 299.0902 0011477 133.9252 226.2660 14.79906438 16500
KUIPER-00139            
1 65765U 25217D   26013.15284609  .00005918  00000+0  46399-3 0  9999
2 65765  51.8857 288.1159 0008520 128.3761 231.7977 15.02203663 16665
KUIPER-00142            
1 65766U 25217E   26013.16672453  .00007399  00000+0  92689-3 0  9997
2 65766  51.8990 281.2022 0001208  75.5068 161.8232 14.83071492  4403
KUIPER-00145            
1 65767U 25217F   26013.16672453  .00001061  00000+0  16490-3 0  9994
2 65767  51.8995 283.6408 0000689  60.3240 229.6288 14.80816692  5141
KUIPER-00147            
1 65768U 25217G   26013.16672453  .00000029  00000+0  32712-4 0  9994
2 65768  51.8987 286.1337 0002116 106.5505  21.8856 14.80290995  5769
KUIPER-00148            
1 65769U 25217H   26013.13099439  .00006247  00000+0  40547-3 0  9991
2 65769  51.8775 282.1209 0010264 154.1362 206.0128 15.09228371 16742
KUIPER-00150            
1 65770U 25217J   26013.06437536 -.00004684  00000+0 -58685-3 0  9996
2 65770  51.9030 296.5766 0001040 101.0737 259.0342 14.79859163 16533
KUIPER-00151            
1 65771U 25217K   26013.13990983  .00002160  00000+0  31224-3 0  9990
2 65771  51.9018 288.7392 0000949  88.2598 271.8473 14.79928886 16655
